ONEWEB-0683             
1 56719U 23068K   24260.63021164  .00000120  00000+0  28539-3 0  9996
2 56719  87.9095  26.2484 0001908  90.1348 270.0001 13.15548693 65463
ONEWEB-0684             
1 56720U 23068L   24260.63812520  .00000168  00000+0  41115-3 0  9999
2 56720  87.9096  26.3237 0002860 127.3254 232.8137 13.15547088 65294
ONEWEB-0686             
1 56721U 23068M   24260.56523603  .00000222  00000+0  54710-3 0  9999
2 56721  87.9167 356.0024 0001984 101.5531 258.5823 13.16593036 67686
ONEWEB-0694             
1 56722U 23068N   24260.52484381  .00000040  00000+0  71982-4 0  9994
2 56722  87.9168 355.9284 0002062  88.6387 271.4981 13.16594711 67732
ONEWEB-0696             
1 56723U 23068P   24260.59532828 -.00000353  00000+0 -97303-3 0  9995
2 56723  87.9090  26.3062 0001644 106.4648 253.6663 13.15548511 65401
ONEWEB-0703             
1 56724U 23068Q   24260.60485149  .00000118  00000+0  27978-3 0  9999
2 56724  87.9094  26.3246 0001475 144.2068 215.9161 13.15549832 65296
ONEWEB-0721             
1 56725U 23068R   24260.58720160  .00005269  00000+0  59658-3 0  9994
2 56725  86.6734 297.8353 0007752 313.8486  46.2097 14.86229677 72089
